FALCONSAT-10            
1 58291U 23174AM  26068.70247784  .00006748  00000+0  25969-3 0  9991
2 58291  97.3865 145.7938 0008932 169.5942 190.5483 15.26670596129582
STARLINK-33683          
1 63573U 25076E   26068.08108751  .00028935  00000+0  10566-2 0  9992
2 63573  43.0035 325.4548 0002167 261.0365  99.0241 15.27589005 51734
